NORAD_CAT_ID,OBJECT_NAME,OBJECT_TYPE,EPOCH,MEAN_MOTION,ECCENTRICITY,INCLINATION,RA_OF_ASC_NODE,ARG_OF_PERICENTER,MEAN_ANOMALY,BSTAR,MEAN_MOTION_DOT,MEAN_MOTION_DDOT,TLE_LINE0,TLE_LINE1,TLE_LINE2,SEMIMAJOR_AXIS,PERIOD,APOGEE,PERIGEE,DECAYED
51719.0,STARLINK-3540,PAYLOAD,2022-10-10 22:55:23,15.08829352,0.0001809,53.2168,161.4516,56.0034,304.113,4.979e-05,5.04e-06,0.0,0 STARLINK-3540,1 51719U 22016F   22283.95512967  .00000504  00000-0  49790-4 0  9997,2 51719  53.2168 161.4516 0001809  56.0034 304.1130 15.08829352 36420,6917.913000000001,95.438,541.029,538.526,0.0
51719.0,STARLINK-3540,PAYLOAD,2022-10-11 11:38:28,15.08829863,0.000175,53.2165,159.0738,57.0778,303.0383,-5.1853e-05,-1.113e-05,0.0,0 STARLINK-3540,1 51719U 22016F   22284.48505507 -.00001113  00000-0 -51853-4 0  9990,2 51719  53.2165 159.0738 0001750  57.0778 303.0383 15.08829863 35443,6917.911,95.438,540.987,538.566,0.0
51719.0,STARLINK-3540,PAYLOAD,2022-10-11 18:00:02,15.08821379,0.0001504,53.2168,157.8827,57.6196,302.4942,-0.00023882,-4.085e-05,0.0,0 STARLINK-3540,1 51719U 22016F   22284.75002825 -.00004085  00000-0 -23882-3 0  9996,2 51719  53.2168 157.8827 0001504  57.6196 302.4942 15.08821379 36548,6917.937,95.439,540.8430000000002,538.762,0.0
51719.0,STARLINK-3540,PAYLOAD,2022-10-12 08:18:30,15.08824913,0.0001624,53.2168,155.2066,56.2921,303.8226,-0.00012079,-2.209e-05,0.0,0 STARLINK-3540,1 51719U 22016F   22285.34619013 -.00002209  00000-0 -12079-3 0  9997,2 51719  53.2168 155.2066 0001624  56.2921 303.8226 15.08824913 36636,6917.927,95.439,540.915,538.668,0.0
51719.0,STARLINK-3540,PAYLOAD,2022-10-13 01:47:44,15.08835986,0.000171,53.2162,151.9406,50.9805,309.1339,0.00015586,2.193e-05,0.0,0 STARLINK-3540,1 51719U 22016F   22286.07481883  .00002193  00000-0  15586-3 0  9996,2 51719  53.2162 151.9406 0001710  50.9805 309.1339 15.08835986 36747,6917.893,95.438,540.941,538.575,0.0
51719.0,STARLINK-3540,PAYLOAD,2022-10-13 17:41:35,15.0883583,0.0001443999999999,53.2167,148.9616,59.0406,301.0727,0.00028766,4.293e-05,0.0,0 STARLINK-3540,1 51719U 22016F   22286.73721474  .00004293  00000-0  28766-3 0  9999,2 51719  53.2167 148.9616 0001444  59.0406 301.0727 15.08835830 35785,6917.893,95.438,540.757,538.759,0.0
51719.0,STARLINK-3540,PAYLOAD,2022-10-14 08:00:03,15.08841082,0.0001518,53.2183,146.2855,53.5997,306.5135,0.00022602,3.311e-05,0.0,0 STARLINK-3540,1 51719U 22016F   22287.33337612  .00003311  00000-0  22602-3 0  9996,2 51719  53.2183 146.2855 0001518  53.5997 306.5135 15.08841082 35874,6917.877,95.437,540.7919999999998,538.692,0.0
51719.0,STARLINK-3540,PAYLOAD,2022-10-14 20:43:08,15.08852464,0.0001373,53.2176,143.9071,57.1003,303.0121,2.0356e-05,3.6e-07,0.0,0 STARLINK-3540,1 51719U 22016F   22287.86329263  .00000036  00000-0  20356-4 0  9993,2 51719  53.2176 143.9071 0001373  57.1003 303.0121 15.08852464 35959,6917.842,95.437,540.6569999999998,538.757,0.0
51719.0,STARLINK-3540,PAYLOAD,2022-10-15 14:12:23,15.08844734,0.0001699,53.2175,140.6332,56.7117,303.4038,-4.0113e-05,-9.27e-06,0.0,0 STARLINK-3540,1 51719U 22016F   22288.59193499 -.00000927  00000-0 -40113-4 0  9998,2 51719  53.2175 140.6332 0001699  56.7117 303.4038 15.08844734 37127,6917.866,95.437,540.906,538.556,0.0
51719.0,STARLINK-3540,PAYLOAD,2022-10-15 20:33:55,15.08845796,0.000178,53.2142,139.4445,65.6921,294.4257,7.9183e-05,9.73e-06,0.0,0 STARLINK-3540,1 51719U 22016F   22288.85688824  .00000973  00000-0  79183-4 0  9996,2 51719  53.2142 139.4445 0001780  65.6921 294.4257 15.08845796 36103,6917.863,95.437,540.9590000000002,538.496,0.0
51719.0,STARLINK-3540,PAYLOAD,2022-10-16 07:41:37,15.08838146,0.0001757,53.2163,137.365,51.6105,308.5045,-8.2775e-05,-1.605e-05,0.0,0 STARLINK-3540,1 51719U 22016F   22289.32057823 -.00001605  00000-0 -82775-4 0  9994,2 51719  53.2163 137.3650 0001757  51.6105 308.5045 15.08838146 37232,6917.886,95.438,540.967,538.536,0.0
51719.0,STARLINK-3540,PAYLOAD,2022-10-16 20:24:43,15.08829173,0.00016,53.2157,134.9845,61.1157,298.9995,-0.00014001,-2.515e-05,0.0,0 STARLINK-3540,1 51719U 22016F   22289.85050699 -.00002515  00000-0 -14001-3 0  9993,2 51719  53.2157 134.9845 0001600  61.1157 298.9995 15.08829173 37319,6917.913000000001,95.438,540.885,538.672,0.0
51719.0,STARLINK-3540,PAYLOAD,2022-10-16 23:35:29,15.08833231,0.0001616,53.2175,134.3903,55.4493,304.6652,-0.00010625,-1.978e-05,0.0,0 STARLINK-3540,1 51719U 22016F   22289.98298420 -.00001978  00000-0 -10625-3 0  9993,2 51719  53.2175 134.3903 0001616  55.4493 304.6652 15.08833231 36273,6917.901,95.438,540.884,538.648,0.0
51719.0,STARLINK-3540,PAYLOAD,2022-10-17 18:40:06,15.08842108,0.0001656,53.216,130.8222,56.2157,303.8993,2.4397e-06,-2.49e-06,0.0,0 STARLINK-3540,1 51719U 22016F   22290.77785752 -.00000249  00000-0  24397-5 0  9993,2 51719  53.2160 130.8222 0001656  56.2157 303.8993 15.08842108 36397,6917.874,95.437,540.885,538.5930000000002,0.0
51719.0,STARLINK-3540,PAYLOAD,2022-10-18 01:01:39,15.08844318,0.0001665,53.216,129.6326,56.8622,303.2529,2.3469e-05,8.6e-07,0.0,0 STARLINK-3540,1 51719U 22016F   22291.04281513  .00000086  00000-0  23469-4 0  9996,2 51719  53.2160 129.6326 0001665  56.8622 303.2529 15.08844318 36430,6917.8669999999975,95.437,540.884,538.58,0.0
51719.0,STARLINK-3540,PAYLOAD,2022-10-18 13:44:44,15.08829801,0.0001713,53.2164,127.2537,56.8034,303.3123,0.00011135,1.484e-05,0.0,0 STARLINK-3540,1 51719U 22016F   22291.57274281  .00001484  00000-0  11135-3 0  9997,2 51719  53.2164 127.2537 0001713  56.8034 303.3123 15.08829801 36513,6917.9119999999975,95.438,540.962,538.592,0.0
51719.0,STARLINK-3540,PAYLOAD,2022-10-19 12:00:08,15.08839571,0.0001717,53.2164,123.0904,55.1066,305.0088,7.5018e-05,9.06e-06,0.0,0 STARLINK-3540,1 51719U 22016F   22292.50010125  .00000906  00000-0  75018-4 0  9995,2 51719  53.2164 123.0904 0001717  55.1066 305.0088 15.08839571 36655,6917.882,95.438,540.935,538.559,0.0
51719.0,STARLINK-3540,PAYLOAD,2022-10-19 15:10:54,15.08845316,0.0001643,53.2164,122.4958,56.0612,304.0536,2.7347e-05,1.47e-06,0.0,0 STARLINK-3540,1 51719U 22016F   22292.63257916  .00000147  00000-0  27347-4 0  9999,2 51719  53.2164 122.4958 0001643  56.0612 304.0536 15.08845316 36675,6917.864000000001,95.437,540.866,538.5930000000002,0.0
51719.0,STARLINK-3540,PAYLOAD,2022-10-20 00:43:14,15.08836101,0.0001599,53.2164,120.7117,55.4391,304.6752,-5.3508e-05,-1.139e-05,0.0,0 STARLINK-3540,1 51719U 22016F   22293.03002726 -.00001139  00000-0 -53508-4 0  9993,2 51719  53.2164 120.7117 0001599  55.4391 304.6752 15.08836101 37792,6917.892,95.438,540.863,538.651,0.0
51719.0,STARLINK-3540,PAYLOAD,2022-10-21 05:20:10,15.08840679,0.0001698,53.2163,115.3584,56.3673,303.7481,3.5601e-05,2.79e-06,0.0,0 STARLINK-3540,1 51719U 22016F   22294.22234433  .00000279  00000-0  35601-4 0  9993,2 51719  53.2163 115.3584 0001698  56.3673 303.7481 15.08840679 36919,6917.878000000002,95.438,540.918,538.569,0.0
51719.0,STARLINK-3540,PAYLOAD,2022-10-21 14:52:29,15.08830827,0.0001943,53.2164,113.574,60.6796,299.439,0.00019404,2.801e-05,0.0,0 STARLINK-3540,1 51719U 22016F   22294.61978419  .00002801  00000-0  19404-3 0  9990,2 51719  53.2164 113.5740 0001943  60.6796 299.4390 15.08830827 36971,6917.908,95.438,541.118,538.429,0.0
51719.0,STARLINK-3540,PAYLOAD,2022-10-22 05:10:56,15.08845338,0.0001751999999999,53.2167,110.8977,60.3159,299.8008,0.00014261,1.983e-05,0.0,0 STARLINK-3540,1 51719U 22016F   22295.21593593  .00001983  00000-0  14261-3 0  9999,2 51719  53.2167 110.8977 0001752  60.3159 299.8008 15.08845338 38126,6917.864000000001,95.437,540.941,538.5169999999998,0.0
51719.0,STARLINK-3540,PAYLOAD,2022-10-22 19:29:25,15.08840816,0.0001784,53.2165,108.2211,63.1729,296.9446,1.4663999999999996e-06,-2.65e-06,0.0,0 STARLINK-3540,1 51719U 22016F   22295.81210385 -.00000265  00000-0  14664-5 0  9992,2 51719  53.2165 108.2211 0001784  63.1729 296.9446 15.08840816 38215,6917.878000000002,95.438,540.977,538.509,0.0
51719.0,STARLINK-3540,PAYLOAD,2022-10-22 22:40:11,15.08841681,0.000178,53.2166,107.6267,62.2808,297.8364,7.1077e-06,-1.75e-06,0.0,0 STARLINK-3540,1 51719U 22016F   22295.94458296 -.00000175  00000-0  71077-5 0  9992,2 51719  53.2166 107.6267 0001780  62.2808 297.8364 15.08841681 37178,6917.875,95.437,540.972,538.509,0.0
51719.0,STARLINK-3540,PAYLOAD,2022-10-23 19:20:12,15.08849391,0.0001740999999999,53.2175,103.7628,51.1395,308.9753,-1.2207e-05,-4.82e-06,0.0,0 STARLINK-3540,1 51719U 22016F   22296.80569456 -.00000482  00000-0 -12207-4 0  9990,2 51719  53.2175 103.7628 0001741  51.1395 308.9753 15.08849391 37308,6917.852,95.437,540.9209999999998,538.512,0.0
51719.0,STARLINK-3540,PAYLOAD,2022-10-23 20:55:35,15.08843358,0.000177,53.2171,103.4645,56.9472,303.1690000000001,-4.8135e-05,-1.054e-05,0.0,0 STARLINK-3540,1 51719U 22016F   22296.87193921 -.00001054  00000-0 -48135-4 0  9992,2 51719  53.2171 103.4645 0001770  56.9472 303.1690 15.08843358 38373,6917.87,95.437,540.96,538.511,0.0
51719.0,STARLINK-3540,PAYLOAD,2022-10-24 11:14:03,15.08843189,0.0001902,53.2167,100.7878,58.7921,301.3258,-4.7134e-05,-1.038e-05,0.0,0 STARLINK-3540,1 51719U 22016F   22297.46809561 -.00001038  00000-0 -47134-4 0  9992,2 51719  53.2167 100.7878 0001902  58.7921 301.3258 15.08843189 37407,6917.871,95.437,541.0509999999998,538.42,0.0
51719.0,STARLINK-3540,PAYLOAD,2022-10-24 16:00:13,15.08832248,0.000157,53.2168,99.8952,61.6602,298.4549,-1.5653e-06,-3.13e-06,0.0,0 STARLINK-3540,1 51719U 22016F   22297.66682370 -.00000313  00000-0 -15653-5 0  9998,2 51719  53.2168  99.8952 0001570  61.6602 298.4549 15.08832248 37435,6917.904,95.438,540.855,538.683,0.0
51719.0,STARLINK-3540,PAYLOAD,2022-10-24 20:46:23,15.08828441,0.0001582,53.2167,99.0034,58.4432,301.6715,-5.9723e-05,-1.238e-05,0.0,0 STARLINK-3540,1 51719U 22016F   22297.86554912 -.00001238  00000-0 -59723-4 0  9992,2 51719  53.2167  99.0034 0001582  58.4432 301.6715 15.08828441 38528,6917.916,95.438,540.875,538.686,0.0
